
STARLINK-3556           
1 51877U 22022AB  25036.14914110  .00005198  00000+0  34459-3 0  9993
2 51877  53.2188 343.7488 0001412  91.5300 268.5854 15.08823217163230
STARLINK-3575           
1 51878U 22022AC  25036.15925982  .00000320  00000+0  38230-4 0  9998
2 51878  53.2202 353.7016 0001622 105.4817 254.6354 15.08833995163108
STARLINK-3572           
1 51879U 22022AD  25036.20805579  .00002297  00000+0  16238-3 0  9992
2 51879  53.2188 343.4847 0001266  38.3166 321.7916 15.08828513163240
STARLINK-3566           
1 51880U 22022AE  25035.16929987 -.00001774  00000+0 -93395-4 0  9999
2 51880  53.2185 357.8647 0001500 101.7737 258.3423 15.08834196162955
STARLINK-3504           
1 51881U 22022AF  25036.13439675  .00008040  00000+0  52242-3 0  9994
2 51881  53.2186 343.8137 0001356  85.9225 274.1922 15.08857613163286
STARLINK-3570           
1 51882U 22022AG  25036.14642099  .00000649  00000+0  58890-4 0  9995
2 51882  53.2193 343.7719 0001386  95.7397 264.3754 15.08831337163281
STARLINK-3576           
1 51883U 22022AH  25035.88052209  .00001380  00000+0  10482-3 0  9991
2 51883  53.2185 345.1378 0001352 110.2277 249.8861 15.08832554163181
STARLINK-3577           
1 51884U 22022AJ  25035.14449787 -.00003067  00000+0 -17466-3 0  9997
2 51884  53.2192 348.2579 0001382 129.0322 231.0793 15.08846564163160
STARLINK-3584           
1 51885U 22022AK  25036.12337607  .00001033  00000+0  82993-4 0  9991
2 51885  53.2188 343.8640 0001576  83.8251 276.2920 15.08843880163227
STARLINK-3565           
1 51886U 22022AL  25036.13073833  .00000949  00000+0  77705-4 0  9991
2 51886  53.2190 343.8312 0001548 100.9138 259.2028 15.08837255163231
STARLINK-3551           
1 51887U 22022AM  25036.11969895  .00007097  00000+0  46331-3 0  9993
2 51887  53.2173 343.8822 0001387  83.0477 277.0673 15.08856803163220
STARLINK-3536           
1 51888U 22022AN  25036.12705104  .00001037  00000+0  83217-4 0  9999
2 51888  53.2190 343.8477 0001503  96.4170 263.6993 15.08848920163232
STARLINK-3547           
1 51889U 22022AP  25036.17489297  .00002341  00000+0  16512-3 0  9999
2 51889  53.2191 343.6349 0001287  91.8069 268.3070 15.08846597163231
STARLINK-3519           
1 51890U 22022AQ  25036.25002315  .00174883  00000+0  34571-2 0  9997
2 51890  53.1899 315.0645 0007646 146.3311 227.1600 15.45982443163649
STARLINK-3549           
1 51891U 22022AR  25036.17122061  .00000635  00000+0  57973-4 0  9996
2 51891  53.2195 343.6511 0001302  86.7891 273.3250 15.08843065163281
STARLINK-3587           
1 51892U 22022AS  25035.84738281  .00003003  00000+0  20672-3 0  9994
2 51892  53.2194 345.1038 0001724  95.7646 264.3543 15.08832003163182
STARLINK-3579           
1 51893U 22022AT  25036.16386838  .00003499  00000+0  23785-3 0  9995
2 51893  53.2202 343.6827 0001519  80.8365 279.2799 15.08832918163292
STARLINK-3595           
1 51894U 22022AU  25036.23376773  .00004712  00000+0  31375-3 0  9994
2 51894  53.2195 343.3696 0001405  93.2985 266.8168 15.08865310163301
STARLINK-3594           
1 51895U 22022AV  25036.22642741  .00003800  00000+0  25671-3 0  9994
2 51895  53.2192 343.4032 0001572  78.3943 281.7226 15.08842599163245
STARLINK-3593           
1 51896U 22022AW  25036.11604234  .00020832  00000+0  13229-2 0  9997
2 51896  53.2174 344.1201 0001568  95.7441 264.3730 15.08846298163273
STARLINK-3598           
1 51897U 22022AX  25036.55394107  .00001235  00000+0  95618-4 0  9991
2 51897  53.2204 341.9330 0001515  90.4464 269.6702 15.08852806163296
STARLINK-3597           
1 51898U 22022AY  25035.15921771 -.00000598  00000+0 -19472-4 0  9997
2 51898  53.2190 348.1902 0001327  86.9626 273.1518 15.08843181163130
2022-023A               
1 51946U 22023A   25036.49854939  .00033042  21287-6  14223-2 0  9993
2 51946  63.4532 158.4071 0086209 330.2704  29.3524 15.18935466162305
2022-023B               
1 51947U 22023B   25036.56071244  .00032744  20883-6  14246-2 0  9996
2 51947  63.4486 157.6393 0083767 336.9584  22.7780 15.18765296161534
2022-023C               
1 51948U 22023C   25036.50193329  .00031936  19882-6  14019-2 0  9997
2 51948  63.4664 158.6332 0076995 340.9732  18.8507 15.18953649161761
2022-023D               
1 51949U 22023D   25036.50531292  .00032399  20472-6  14030-2 0  9997
2 51949  63.4818 159.8733 0082642 339.4087  20.3701 15.19005035162014
2022-023E               
1 51950U 22023E   25035.87763693  .00000078  00000+0  23269-3 0  9992
2 51950  63.4618 172.6404 0114601 348.7929  11.0553 13.56195186154582
2022-023F               
1 51951U 22023F   25036.50858211  .00031480  19314-6  13558-2 0  9990
2 51951  63.5023 160.8066 0086079 342.1160  17.6928 15.18928249157584
STARLINK-3700           
1 51956U 22025A   25036.14944950 -.00003283  00000+0 -19256-3 0  9992
2 51956  53.0569   6.6875 0001871 117.5986 242.5194 15.08026556162219
STARLINK-3694           
1 51957U 22025B   25036.18550581  .00000304  00000+0  39306-4 0  9998
2 51957  53.0575  20.3340 0001558  81.8982 278.2184 15.06388600162043
STARLINK-3692           
1 51958U 22025C   25036.34445482  .00002220  00000+0  16090-3 0  9993
2 51958  53.0569   5.8119 0001554  91.0784 269.0384 15.08031898162246
STARLINK-3704           
1 51959U 22025D   25036.18918496 -.00001036  00000+0 -50626-4 0  9996
2 51959  53.0572  20.2940 0001751 115.0065 245.1106 15.06400767162028
STARLINK-3691           
1 51960U 22025E   25036.38084854  .00002591  00000+0  19274-3 0  9990
2 51960  53.0580  19.4335 0001717  88.2208 271.8977 15.06401114162051
STARLINK-3697           
1 51962U 22025G   25036.14962842  .00001684  00000+0  13192-3 0  9993
2 51962  53.0575  11.0508 0001529  90.3038 269.8126 15.06395038162176
STARLINK-3675           
1 51963U 22025H   25036.13892462  .00000537  00000+0  52888-4 0  9995
2 51963  53.0584   6.7224 0001414 101.2671 258.8478 15.08029059162213
STARLINK-3690           
1 51964U 22025J   25036.19485646 -.00001270  00000+0 -66391-4 0  9995
2 51964  53.0570  11.4328 0001207  88.8034 271.3093 15.06405828162156
STARLINK-3696           
1 51965U 22025K   25036.17812340  .00001245  00000+0  10247-3 0  9997
2 51965  53.0563  20.3419 0001421  82.3543 277.7608 15.06407379162022
STARLINK-3699           
1 51966U 22025L   25036.15094375  .00002573  00000+0  19159-3 0  9992
2 51966  53.0562  15.4467 0001930  95.4268 264.6941 15.06397294162090
STARLINK-3681           
1 51968U 22025N   25035.31392450  .00000183  00000+0  31214-4 0  9998
2 51968  53.0577  15.3064 0001507  93.1218 266.9943 15.06402993160931
STARLINK-3680           
1 51969U 22025P   25036.15067256  .00000870  00000+0  77338-4 0  9995
2 51969  53.0570  11.8489 0001635 101.5444 258.5728 15.06393208162156
STARLINK-3677           
1 51970U 22025Q   25036.34629803  .00000029  00000+0  20833-4 0  9994
2 51970  53.0573  14.6407 0001253 102.5821 257.5308 15.06410179162125
STARLINK-3669           
1 51971U 22025R   25035.91473310  .00002908  00000+0  21411-3 0  9997
2 51971  53.0578  12.5595 0001627  84.1749 275.9426 15.06393100162135
STARLINK-3671           
1 51972U 22025S   25035.34003827  .00002086  00000+0  15893-3 0  9991
2 51972  53.0554  19.1410 0001288  92.5520 267.5617 15.06397334160884
STARLINK-3679           
1 51973U 22025T   25035.21470737  .00000438  00000+0  48331-4 0  9999
2 51973  53.0558  19.6462 0001554  96.1004 264.0162 15.06397016160866
STARLINK-3672           
1 51974U 22025U   25036.19886390  .00005155  00000+0  36481-3 0  9997
2 51974  53.0573  15.2864 0001817  84.9221 275.1976 15.06392932162095
STARLINK-3674           
1 51975U 22025V   25036.18280960  .00001064  00000+0  90295-4 0  9997
2 51975  53.0570  10.9564 0001465  91.9536 268.1621 15.06397796162180
STARLINK-3663           
1 51976U 22025W   25035.34457947  .00042267  00000+0  19056-2 0  9990
2 51976  53.2115  21.3808 0001834 284.2092  75.8702 15.20644835161018
STARLINK-3660           
1 51977U 22025X   25036.17769476  .00003981  00000+0  26806-3 0  9998
2 51977  53.2180   3.6311 0001294  81.2023 278.9116 15.08842766162411
STARLINK-3656           
1 51979U 22025Z   25036.38097379  .00001676  00000+0  12333-3 0  9998
2 51979  53.2185  22.7067 0001422  91.5387 268.5768 15.08844404162192
STARLINK-3649           
1 51980U 22025AA  25036.22642173  .00005493  00000+0  36312-3 0  9995
2 51980  53.2168  23.3992 0001084  97.4551 262.6564 15.08822791162140
STARLINK-3635           
1 51981U 22025AB  25036.17491743  .00009085  00000+0  58829-3 0  9993
2 51981  53.2189  23.6308 0001530  90.6081 269.5086 15.08832835162142
STARLINK-3655           
1 51983U 22025AD  25036.23746455 -.00000240  00000+0  29815-5 0  9995
2 51983  53.2185  23.3561 0001431  97.7520 262.3635 15.08832394162178
STARLINK-3664           
1 51984U 22025AE  25035.34786858  .00000462  00000+0  47121-4 0  9992
2 51984  53.2191  27.4337 0001516  96.5479 263.5686 15.08839174160929
STARLINK-3651           
1 51985U 22025AF  25036.36354044 -.00002980  00000+0 -16932-3 0  9998
2 51985  53.2179  22.7921 0001575  90.0167 270.1006 15.08820250162164
STARLINK-3645           
1 51986U 22025AG  25036.17856327  .00001613  00000+0  11945-3 0  9998
2 51986  53.2194  23.4606 0001661  98.8188 261.2992 15.08835749162147
STARLINK-3644           
1 51987U 22025AH  25036.34050062  .00000032  00000+0  20117-4 0  9996
2 51987  53.2195  22.8918 0001689  84.5160 275.6024 15.08842031162169
STARLINK-3640           
1 51988U 22025AJ  25036.25585364 -.00000647  00000+0 -22550-4 0  9992
2 51988  53.2187  23.2680 0001345  80.5291 279.5853 15.08829802162177
STARLINK-3642           
1 51989U 22025AK  25036.13810435  .00001120  00000+0  88471-4 0  9999
2 51989  53.2195  23.8011 0001387 111.9640 248.1500 15.08833639162145
